NORAD_CAT_ID,OBJECT_NAME,OBJECT_TYPE,EPOCH,MEAN_MOTION,ECCENTRICITY,INCLINATION,RA_OF_ASC_NODE,ARG_OF_PERICENTER,MEAN_ANOMALY,BSTAR,MEAN_MOTION_DOT,MEAN_MOTION_DDOT,TLE_LINE0,TLE_LINE1,TLE_LINE2,SEMIMAJOR_AXIS,PERIOD,APOGEE,PERIGEE,DECAYED
53154.0,STARLINK-4077,PAYLOAD,2024-05-24 14:49:06,15.08849087,0.0001228,53.2162,220.3632,96.98,263.1332,0.00011939,1.613e-05,0.0,0 STARLINK-4077,1 53154U 22083Y   24145.61743958  .00001613  00000-0  11939-3 0  9999,2 53154  53.2162 220.3632 0001228  96.9800 263.1332 15.08849087103242,6917.853,95.437,540.567,538.868,0.0
53154.0,STARLINK-4077,PAYLOAD,2024-05-25 05:07:35,15.0883784,0.0001358,53.2157,217.6865,85.742,274.3727,-1.607e-05,-5.44e-06,0.0,0 STARLINK-4077,1 53154U 22083Y   24146.21360515 -.00000544  00000-0 -16070-4 0  9996,2 53154  53.2157 217.6865 0001358  85.7420 274.3727 15.08837840103337,6917.887,95.438,540.691,538.813,0.0
53154.0,STARLINK-4077,PAYLOAD,2024-05-25 11:29:08,15.08829443,0.000112,53.2166,216.4958,72.8555,287.256,-6.2474e-05,-1.282e-05,0.0,0 STARLINK-4077,1 53154U 22083Y   24146.47857396 -.00001282  00000-0 -62474-4 0  9991,2 53154  53.2166 216.4958 0001120  72.8555 287.2560 15.08829443103372,6917.913,95.438,540.552,539.003,0.0
53154.0,STARLINK-4077,PAYLOAD,2024-05-26 04:58:23,15.0883157,0.0001154,53.2173,213.2291,76.0725,284.0395,1.5824e-05,-3.6e-07,0.0,0 STARLINK-4077,1 53154U 22083Y   24147.20721256 -.00000036  00000-0  15824-4 0  9990,2 53154  53.2173 213.2291 0001154  76.0725 284.0395 15.08831570103484,6917.906,95.438,540.569,538.973,0.0
53154.0,STARLINK-4077,PAYLOAD,2024-05-26 09:44:32,15.08838975,0.0001123,53.2171,212.3306,79.8148,280.2971,5.9437e-06,-1.93e-06,0.0,0 STARLINK-4077,1 53154U 22083Y   24147.40592870 -.00000193  00000-0  59437-5 0  9993,2 53154  53.2171 212.3306 0001123  79.8148 280.2971 15.08838975102882,6917.884,95.438,540.525,538.972,0.0
53154.0,STARLINK-4077,PAYLOAD,2024-05-26 20:52:13,15.08850084,0.0001228,53.2179,210.2621,111.5248,248.5875,-9.1603e-05,-1.746e-05,0.0,0 STARLINK-4077,1 53154U 22083Y   24147.86960325 -.00001746  00000-0 -91603-4 0  9993,2 53154  53.2179 210.2621 0001228 111.5248 248.5875 15.08850084103581,6917.85,95.437,540.564,538.865,0.0
53154.0,STARLINK-4077,PAYLOAD,2024-05-27 03:13:46,15.0883896,0.0001488,53.2176,209.069,94.0355,266.0808,0.00011011,1.465e-05,0.0,0 STARLINK-4077,1 53154U 22083Y   24148.13456639  .00001465  00000-0  11011-3 0  9992,2 53154  53.2176 209.0690 0001488  94.0355 266.0808 15.08838960103627,6917.884,95.438,540.778,538.719,0.0
53154.0,STARLINK-4077,PAYLOAD,2024-05-27 11:10:42,15.08833354,0.0001313,53.2173,207.5775,66.6168,293.4962,0.00013905,1.925e-05,0.0,0 STARLINK-4077,1 53154U 22083Y   24148.46577103  .00001925  00000-0  13905-3 0  9993,2 53154  53.2173 207.5775 0001313  66.6168 293.4962 15.08833354103677,6917.901,95.438,540.674,538.857,0.0
53154.0,STARLINK-4077,PAYLOAD,2024-05-28 11:01:29,15.08842001,0.0001278,53.2164,203.1174,69.3187,290.7942,6.4484e-05,7.39e-06,0.0,0 STARLINK-4077,1 53154U 22083Y   24149.45936915  .00000739  00000-0  64484-4 0  9994,2 53154  53.2164 203.1174 0001278  69.3187 290.7942 15.08842001103197,6917.874,95.437,540.623,538.855,0.0
53154.0,STARLINK-4077,PAYLOAD,2024-05-29 02:55:20,15.08841388,0.0001274,53.2161,200.1447,69.8229,290.29,4.4099e-05,4.14e-06,0.0,0 STARLINK-4077,1 53154U 22083Y   24150.12176873  .00000414  00000-0  44099-4 0  9999,2 53154  53.2161 200.1447 0001274  69.8229 290.2900 15.08841388103929,6917.876,95.437,540.622,538.86,0.0
53154.0,STARLINK-4077,PAYLOAD,2024-05-29 12:27:39,15.08841786,0.0001312,53.2165,198.3599,75.7158,284.3979,3.7933e-05,3.16e-06,0.0,0 STARLINK-4077,1 53154U 22083Y   24150.51920859  .00000316  00000-0  37933-4 0  9993,2 53154  53.2165 198.3599 0001312  75.7158 284.3979 15.08841786103358,6917.875,95.437,540.648,538.832,0.0
53154.0,STARLINK-4077,PAYLOAD,2024-05-30 09:07:40,15.08843624,0.0001371,53.2163,194.4944,77.2348,282.8798,3.5629e-05,2.79e-06,0.0,0 STARLINK-4077,1 53154U 22083Y   24151.38032659  .00000279  00000-0  35629-4 0  9999,2 53154  53.2163 194.4944 0001371  77.2348 282.8798 15.08843624104110,6917.869,95.437,540.683,538.786,0.0
53154.0,STARLINK-4077,PAYLOAD,2024-05-31 12:09:13,15.08840863,0.0001366,53.2161,189.4392,82.5012,277.6135,4.1407e-05,3.71e-06,0.0,0 STARLINK-4077,1 53154U 22083Y   24152.50640708  .00000371  00000-0  41407-4 0  9998,2 53154  53.2161 189.4392 0001366  82.5012 277.6135 15.08840863104287,6917.878,95.438,540.688,538.798,0.0
53154.0,STARLINK-4077,PAYLOAD,2024-05-31 20:06:09,15.08840476,0.0001496,53.2174,187.9513,91.9298,268.1865,2.1494e-05,5.4e-07,0.0,0 STARLINK-4077,1 53154U 22083Y   24152.83760715  .00000054  00000-0  21494-4 0  9997,2 53154  53.2174 187.9513 0001496  91.9298 268.1865 15.08840476103704,6917.879,95.438,540.779,538.709,0.0
53154.0,STARLINK-4077,PAYLOAD,2024-06-01 08:49:14,15.08833567,0.000131,53.2173,185.573,94.4427,265.6715,4.2941e-05,3.95e-06,0.0,0 STARLINK-4077,1 53154U 22083Y   24153.36753079  .00000395  00000-0  42941-4 0  9999,2 53154  53.2173 185.5730 0001310  94.4427 265.6715 15.08833567104413,6917.9,95.438,540.671,538.859,0.0
53154.0,STARLINK-4077,PAYLOAD,2024-06-02 11:50:47,15.0883809,0.000134,53.2165,180.5186,91.5709,268.5437,2.6248e-05,1.3e-06,0.0,0 STARLINK-4077,1 53154U 22083Y   24154.49361038  .00000130  00000-0  26248-4 0  9993,2 53154  53.2165 180.5186 0001340  91.5709 268.5437 15.08838090104585,6917.886,95.438,540.678,538.824,0.0
53154.0,STARLINK-4077,PAYLOAD,2024-06-03 08:30:49,15.08834016,0.0001322,53.2164,176.6531,91.9192,268.1952,4.5834e-05,4.42e-06,0.0,0 STARLINK-4077,1 53154U 22083Y   24155.35473480  .00000442  00000-0  45834-4 0  9992,2 53154  53.2164 176.6531 0001322  91.9192 268.1952 15.08834016104081,6917.899,95.438,540.678,538.849,0.0
53154.0,STARLINK-4077,PAYLOAD,2024-06-03 18:03:07,15.08840366,0.0001312,53.2165,174.868,86.1344,273.9798,1.5932e-05,-3.4e-07,0.0,0 STARLINK-4077,1 53154U 22083Y   24155.75217260 -.00000034  00000-0  15932-4 0  9992,2 53154  53.2165 174.8680 0001312  86.1344 273.9798 15.08840366104774,6917.879,95.438,540.652,538.837,0.0
53154.0,STARLINK-4077,PAYLOAD,2024-06-04 08:21:35,15.08839563,0.0001302,53.2164,172.1925,90.9228,269.1913,5.8108e-05,6.37e-06,0.0,0 STARLINK-4077,1 53154U 22083Y   24156.34833294  .00000637  00000-0  58108-4 0  9999,2 53154  53.2164 172.1925 0001302  90.9228 269.1913 15.08839563104233,6917.882,95.438,540.647,538.846,0.0
53154.0,STARLINK-4077,PAYLOAD,2024-06-04 17:53:54,15.08843281,0.000131,53.2166,170.4081,88.8289,271.2854,8.7175e-05,1.1e-05,0.0,0 STARLINK-4077,1 53154U 22083Y   24156.74576975  .00001100  00000-0  87175-4 0  9995,2 53154  53.2166 170.4081 0001310  88.8289 271.2854 15.08843281104297,6917.87,95.437,540.642,538.829,0.0
53154.0,STARLINK-4077,PAYLOAD,2024-06-05 09:47:46,15.08838125,0.0001364,53.2168,167.4347,85.4765,274.6383,6.1057e-05,6.84e-06,0.0,0 STARLINK-4077,1 53154U 22083Y   24157.40817409  .00000684  00000-0  61057-4 0  9996,2 53154  53.2168 167.4347 0001364  85.4765 274.6383 15.08838125105028,6917.886,95.438,540.695,538.808,0.0
53154.0,STARLINK-4077,PAYLOAD,2024-06-05 17:44:41,15.08842059,0.000137,53.2169,165.9479,85.4365,274.6783,6.4943e-05,7.46e-06,0.0,0 STARLINK-4077,1 53154U 22083Y   24157.73937158  .00000746  00000-0  64943-4 0  9992,2 53154  53.2169 165.9479 0001370  85.4365 274.6783 15.08842059104441,6917.874,95.437,540.687,538.791,0.0
53154.0,STARLINK-4077,PAYLOAD,2024-06-06 06:27:47,15.08839296,0.0001351,53.2165,163.569,87.2114,272.9033,3.7527e-05,3.09e-06,0.0,0 STARLINK-4077,1 53154U 22083Y   24158.26929408  .00000309  00000-0  37527-4 0  9993,2 53154  53.2165 163.5690 0001351  87.2114 272.9033 15.08839296104524,6917.883,95.438,540.682,538.813,0.0
53154.0,STARLINK-4077,PAYLOAD,2024-06-06 23:57:01,15.08839993,0.0001353,53.216,160.298,86.6212,273.4935,4.5828e-05,4.42e-06,0.0,0 STARLINK-4077,1 53154U 22083Y   24158.99793257  .00000442  00000-0  45828-4 0  9995,2 53154  53.2160 160.2980 0001353  86.6212 273.4935 15.08839993105262,6917.88,95.438,540.681,538.809,0.0
53154.0,STARLINK-4077,PAYLOAD,2024-06-07 09:29:20,15.08841555,0.0001375,53.216,158.5134,87.8529,272.2621,2.8217e-05,1.61e-06,0.0,0 STARLINK-4077,1 53154U 22083Y   24159.39537232  .00000161  00000-0  28217-4 0  9990,2 53154  53.2160 158.5134 0001375  87.8529 272.2621 15.08841555104693,6917.876,95.437,540.692,538.789,0.0
53154.0,STARLINK-4077,PAYLOAD,2024-06-08 04:33:57,15.08840684,0.000137,53.216,154.9447,89.034,271.0809,6.8519e-05,8.03e-06,0.0,0 STARLINK-4077,1 53154U 22083Y   24160.19025117  .00000803  00000-0  68519-4 0  9996,2 53154  53.2160 154.9447 0001370  89.0340 271.0809 15.08840684105441,6917.878,95.438,540.691,538.796,0.0
53154.0,STARLINK-4077,PAYLOAD,2024-06-08 10:55:29,15.08844494,0.000139,53.2162,153.7542,93.5791,266.536,7.209e-05,8.6e-06,0.0,0 STARLINK-4077,1 53154U 22083Y   24160.45520811  .00000860  00000-0  72090-4 0  9998,2 53154  53.2162 153.7542 0001390  93.5791 266.5360 15.08844494104856,6917.867,95.437,540.693,538.77,0.0
53154.0,STARLINK-4077,PAYLOAD,2024-06-09 06:00:08,15.08833107,0.0001451,53.2166,150.1852,96.7709,263.3448,-1.5095e-05,-5.28e-06,0.0,0 STARLINK-4077,1 53154U 22083Y   24161.25009907 -.00000528  00000-0 -15095-4 0  9990,2 53154  53.2166 150.1852 0001451  96.7709 263.3448 15.08833107105602,6917.901,95.438,540.77,538.763,0.0
53154.0,STARLINK-4077,PAYLOAD,2024-06-10 05:50:55,15.08841398,0.00015,53.2174,145.7266,96.3572,263.7591,4.2911e-05,3.95e-06,0.0,0 STARLINK-4077,1 53154U 22083Y   24162.24369425  .00000395  00000-0  42911-4 0  9991,2 53154  53.2174 145.7266 0001500  96.3572 263.7591 15.08841398105759,6917.876,95.437,540.779,538.703,0.0
53154.0,STARLINK-4077,PAYLOAD,2024-06-10 09:01:41,15.08841223,0.000148,53.2174,145.132,95.8079,264.3082,4.0564e-05,3.58e-06,0.0,0 STARLINK-4077,1 53154U 22083Y   24162.37617447  .00000358  00000-0  40564-4 0  9996,2 53154  53.2174 145.1320 0001480  95.8079 264.3082 15.08841223105149,6917.877,95.437,540.765,538.718,0.0
